{"type": "FeatureCollection", "features": [ {"type": "Feature", "properties": {"norad_id": 35442, "name": "COSMOS 2251 DEB", "group": "cosmos-2251-debris", "lat": -73.97648635008318, "lon": 12.519344901313485, "alt_km": 624.9081909972119, "timestamp": "2025-12-13T03:42:11.668171+00:00", "meta": {"OBJECT_NAME": "COSMOS 2251 DEB", "OBJECT_ID": "1993-036AKL", "EPOCH": "2025-12-10T17:52:23.497824", "MEAN_MOTION": 14.84307809, "ECCENTRICITY": 0.00039175, "INCLINATION": 74.0276, "RA_OF_ASC_NODE": 103.0968, "ARG_OF_PERICENTER": 96.7056, "MEAN_ANOMALY": 263.4569, "EPHEMERIS_TYPE": 0, "CLASSIFICATION_TYPE": "U", "NORAD_CAT_ID": 35442, "ELEMENT_SET_NO": 999, "REV_AT_EPOCH": 87323, "BSTAR": 0.0043727584, "MEAN_MOTION_DOT": 0.00036855, "MEAN_MOTION_DDOT": 0}, "tle": {"line1": "1 35442U 93036AKL 25344.74471641  .00036855  00000+0  43728-2 0  9993", "line2": "2 35442  74.0276 103.0968 0003917  96.7056 263.4569 14.84307809873238"}}, "geometry": {"type": "Point", "coordinates": [12.519344901313485, -73.97648635008318]}}, {"type": "Feature", "properties": {"norad_id": 35443, "name": "COSMOS 2251 DEB", "group": "cosmos-2251-debris", "lat": -37.49089715888394, "lon": -41.96608527266792, "alt_km": 628.3557761742786, "timestamp": "2025-12-13T03:42:11.668181+00:00", "meta": {"OBJECT_NAME": "COSMOS 2251 DEB", "OBJECT_ID": "1993-036AKM", "EPOCH": "2025-12-08T06:44:44.274336", "MEAN_MOTION": 14.96147372, "ECCENTRICITY": 0.00733753, "INCLINATION": 73.988, "RA_OF_ASC_NODE": 340.6328, "ARG_OF_PERICENTER": 123.8306, "MEAN_ANOMALY": 236.9892, "EPHEMERIS_TYPE": 0, "CLASSIFICATION_TYPE": "U", "NORAD_CAT_ID": 35443, "ELEMENT_SET_NO": 999, "REV_AT_EPOCH": 86811, "BSTAR": 0.0035457848, "MEAN_MOTION_DOT": 0.00042371, "MEAN_MOTION_DDOT": 0}, "tle": {"line1": "1 35443U 93036AKM 25342.28106799  .00042371  00000+0  35458-2 0  9991", "line2": "2 35443  73.9880 340.6328 0073375 123.8306 236.9892 14.96147372868117"}}, "geometry": {"type": "Point", "coordinates": [-41.96608527266792, -37.49089715888394]}}, {"type": "Feature", "properties": {"norad_id": 35445, "name": "COSMOS 2251 DEB", "group": "cosmos-2251-debris", "lat": -57.362064243870634, "lon": -87.32720094021855, "alt_km": 696.188563964608, "timestamp": "2025-12-13T03:42:11.668191+00:00", "meta": {"OBJECT_NAME": "COSMOS 2251 DEB", "OBJECT_ID": "1993-036AKP", "EPOCH": "2025-12-09T14:24:43.017696", "MEAN_MOTION": 14.5903749, "ECCENTRICITY": 0.01436968, "INCLINATION": 74.0376, "RA_OF_ASC_NODE": 305.9887, "ARG_OF_PERICENTER": 33.7492, "MEAN_ANOMALY": 327.2717, "EPHEMERIS_TYPE": 0, "CLASSIFICATION_TYPE": "U", "NORAD_CAT_ID": 35445, "ELEMENT_SET_NO": 999, "REV_AT_EPOCH": 87283, "BSTAR": 0.0029213682, "MEAN_MOTION_DOT": 0.00015858, "MEAN_MOTION_DDOT": 0}, "tle": {"line1": "1 35445U 93036AKP 25343.60049789  .00015858  00000+0  29214-2 0  9998", "line2": "2 35445  74.0376 305.9887 0143696  33.7492 327.2717 14.59037490872836"}}, "geometry": {"type": "Point", "coordinates": [-87.32720094021855, -57.362064243870634]}}, {"type": "Feature", "properties": {"norad_id": 35446, "name": "COSMOS 2251 DEB", "group": "cosmos-2251-debris", "lat": -29.472241474954036, "lon": -51.904874587195586, "alt_km": 730.4726667418599, "timestamp": "2025-12-13T03:42:11.668202+00:00", "meta": {"OBJECT_NAME": "COSMOS 2251 DEB", "OBJECT_ID": "1993-036AKQ", "EPOCH": "2025-12-12T04:44:10.807584", "MEAN_MOTION": 14.54628502, "ECCENTRICITY": 0.00744372, "INCLINATION": 74.0468, "RA_OF_ASC_NODE": 319.2068, "ARG_OF_PERICENTER": 77.5544, "MEAN_ANOMALY": 283.3936, "EPHEMERIS_TYPE": 0, "CLASSIFICATION_TYPE": "U", "NORAD_CAT_ID": 35446, "ELEMENT_SET_NO": 999, "REV_AT_EPOCH": 88000, "BSTAR": 0.00018509547, "MEAN_MOTION_DOT": 7.91e-06, "MEAN_MOTION_DDOT": 0}, "tle": {"line1": "1 35446U 93036AKQ 25346.19734731  .00000791  00000+0  18510-3 0  9992", "line2": "2 35446  74.0468 319.2068 0074437  77.5544 283.3936 14.54628502880006"}}, "geometry": {"type": "Point", "coordinates": [-51.904874587195586, -29.472241474954036]}}, {"type": "Feature", "properties": {"norad_id": 35448, "name": "COSMOS 2251 DEB", "group": "cosmos-2251-debris", "lat": -8.059253807381968, "lon": -88.93408002479444, "alt_km": 714.0704209458463, "timestamp": "2025-12-13T03:42:11.668211+00:00", "meta": {"OBJECT_NAME": "COSMOS 2251 DEB", "OBJECT_ID": "1993-036AKS", "EPOCH": "2025-12-10T08:47:56.216832", "MEAN_MOTION": 14.54228098, "ECCENTRICITY": 0.00112894, "INCLINATION": 73.9047, "RA_OF_ASC_NODE": 94.0334, "ARG_OF_PERICENTER": 275.0476, "MEAN_ANOMALY": 84.9397, "EPHEMERIS_TYPE": 0, "CLASSIFICATION_TYPE": "U", "NORAD_CAT_ID": 35448, "ELEMENT_SET_NO": 999, "REV_AT_EPOCH": 87300, "BSTAR": 0.0017680257, "MEAN_MOTION_DOT": 7.475e-05, "MEAN_MOTION_DDOT": 0}, "tle": {"line1": "1 35448U 93036AKS 25344.36662288  .00007475  00000+0  17680-2 0  9990", "line2": "2 35448  73.9047  94.0334 0011289 275.0476  84.9397 14.54228098873002"}}, "geometry": {"type": "Point", "coordinates": [-88.93408002479444, -8.059253807381968]}}, {"type": "Feature", "properties": {"norad_id": 35451, "name": "COSMOS 2251 DEB", "group": "cosmos-2251-debris", "lat": -27.805852659470073, "lon": 93.03018669344591, "alt_km": 437.7803385028719, "timestamp": "2025-12-13T03:42:11.668221+00:00", "meta": {"OBJECT_NAME": "COSMOS 2251 DEB", "OBJECT_ID": "1993-036AKV", "EPOCH": "2025-12-11T14:18:02.259072", "MEAN_MOTION": 15.35417898, "ECCENTRICITY": 0.00409084, "INCLINATION": 73.9313, "RA_OF_ASC_NODE": 105.1387, "ARG_OF_PERICENTER": 351.3523, "MEAN_ANOMALY": 8.6971, "EPHEMERIS_TYPE": 0, "CLASSIFICATION_TYPE": "U", "NORAD_CAT_ID": 35451, "ELEMENT_SET_NO": 999, "REV_AT_EPOCH": 67388, "BSTAR": 0.0019731642, "MEAN_MOTION_DOT": 0.00070398, "MEAN_MOTION_DDOT": 0}, "tle": {"line1": "1 35451U 93036AKV 25345.59585948  .00070398  00000+0  19732-2 0  9991", "line2": "2 35451  73.9313 105.1387 0040908 351.3523   8.6971 15.35417898673888"}}, "geometry": {"type": "Point", "coordinates": [93.03018669344591, -27.805852659470073]}}, {"type": "Feature", "properties": {"norad_id": 35453, "name": "COSMOS 2251 DEB", "group": "cosmos-2251-debris", "lat": -36.01623910972916, "lon": -148.350145943242, "alt_km": 749.6641048649599, "timestamp": "2025-12-13T03:42:11.668232+00:00", "meta": {"OBJECT_NAME": "COSMOS 2251 DEB", "OBJECT_ID": "1993-036AKX", "EPOCH": "2025-12-02T12:53:58.122528", "MEAN_MOTION": 14.3790654, "ECCENTRICITY": 0.00680216, "INCLINATION": 74.0102, "RA_OF_ASC_NODE": 39.1945, "ARG_OF_PERICENTER": 175.6131, "MEAN_ANOMALY": 184.5634, "EPHEMERIS_TYPE": 0, "CLASSIFICATION_TYPE": "U", "NORAD_CAT_ID": 35453, "ELEMENT_SET_NO": 999, "REV_AT_EPOCH": 86072, "BSTAR": 0.00098540606, "MEAN_MOTION_DOT": 3.03e-05, "MEAN_MOTION_DDOT": 0}, "tle": {"line1": "1 35453U 93036AKX 25336.53747827  .00003030  00000+0  98541-3 0  9998", "line2": "2 35453  74.0102  39.1945 0068021 175.6131 184.5634 14.37906540860721"}}, "geometry": {"type": "Point", "coordinates": [-148.350145943242, -36.01623910972916]}}, {"type": "Feature", "properties": {"norad_id": 35455, "name": "COSMOS 2251 DEB", "group": "cosmos-2251-debris", "lat": 73.90673621017335, "lon": 17.085442594059167, "alt_km": 675.1376197749032, "timestamp": "2025-12-13T03:42:11.668242+00:00", "meta": {"OBJECT_NAME": "COSMOS 2251 DEB", "OBJECT_ID": "1993-036AKZ", "EPOCH": "2025-12-10T07:23:15.145152", "MEAN_MOTION": 14.49356293, "ECCENTRICITY": 0.0098984, "INCLINATION": 74.0286, "RA_OF_ASC_NODE": 299.3687, "ARG_OF_PERICENTER": 43.4933, "MEAN_ANOMALY": 317.3978, "EPHEMERIS_TYPE": 0, "CLASSIFICATION_TYPE": "U", "NORAD_CAT_ID": 35455, "ELEMENT_SET_NO": 999, "REV_AT_EPOCH": 86508, "BSTAR": 0.0024937, "MEAN_MOTION_DOT": 0.00010129, "MEAN_MOTION_DDOT": 0}, "tle": {"line1": "1 35455U 93036AKZ 25344.30781418  .00010129  00000+0  24937-2 0  9992", "line2": "2 35455  74.0286 299.3687 0098984  43.4933 317.3978 14.49356293865080"}}, "geometry": {"type": "Point", "coordinates": [17.085442594059167, 73.90673621017335]}}, {"type": "Feature", "properties": {"norad_id": 35456, "name": "COSMOS 2251 DEB", "group": "cosmos-2251-debris", "lat": 57.3904247208865, "lon": -90.0708316694716, "alt_km": 697.6081922495569, "timestamp": "2025-12-13T03:42:11.668252+00:00", "meta": {"OBJECT_NAME": "COSMOS 2251 DEB", "OBJECT_ID": "1993-036ALA", "EPOCH": "2025-12-07T16:26:35.520576", "MEAN_MOTION": 14.69275987, "ECCENTRICITY": 0.0065481, "INCLINATION": 73.9502, "RA_OF_ASC_NODE": 127.3161, "ARG_OF_PERICENTER": 338.308, "MEAN_ANOMALY": 21.5318, "EPHEMERIS_TYPE": 0, "CLASSIFICATION_TYPE": "U", "NORAD_CAT_ID": 35456, "ELEMENT_SET_NO": 999, "REV_AT_EPOCH": 65801, "BSTAR": 0.0028319025, "MEAN_MOTION_DOT": 0.00017275, "MEAN_MOTION_DDOT": 0}, "tle": {"line1": "1 35456U 93036ALA 25341.68513334  .00017275  00000+0  28319-2 0  9998", "line2": "2 35456  73.9502 127.3161 0065481 338.3080  21.5318 14.69275987658019"}}, "geometry": {"type": "Point", "coordinates": [-90.0708316694716, 57.3904247208865]}}, {"type": "Feature", "properties": {"norad_id": 35459, "name": "COSMOS 2251 DEB", "group": "cosmos-2251-debris", "lat": 73.69927341713326, "lon": -75.21792206627913, "alt_km": 750.8333172738403, "timestamp": "2025-12-13T03:42:11.668262+00:00", "meta": {"OBJECT_NAME": "COSMOS 2251 DEB", "OBJECT_ID": "1993-036ALD", "EPOCH": "2025-12-10T20:09:22.902624", "MEAN_MOTION": 14.37457314, "ECCENTRICITY": 0.00163485, "INCLINATION": 73.8697, "RA_OF_ASC_NODE": 190.8154, "ARG_OF_PERICENTER": 139.3588, "MEAN_ANOMALY": 220.8788, "EPHEMERIS_TYPE": 0, "CLASSIFICATION_TYPE": "U", "NORAD_CAT_ID": 35459, "ELEMENT_SET_NO": 999, "REV_AT_EPOCH": 58334, "BSTAR": 0.00035409839, "MEAN_MOTION_DOT": 1.034e-05, "MEAN_MOTION_DDOT": 0}, "tle": {"line1": "1 35459U 93036ALD 25344.83984841  .00001034  00000+0  35410-3 0  9993", "line2": "2 35459  73.8697 190.8154 0016348 139.3588 220.8788 14.37457314583342"}}, "geometry": {"type": "Point", "coordinates": [-75.21792206627913, 73.69927341713326]}}]}